{"fetched_at":"2026-07-10T07:58:41.598Z","source":"https://celestrak.org/NORAD/elements/gp.php?GROUP=oneweb&FORMAT=JSON","constellation":"oneweb","records":[{"OBJECT_NAME":"ONEWEB-0457","OBJECT_ID":"2022-012AB","EPOCH":"2026-07-09T12:58:08.402592","CLASSIFICATION_TYPE":"U","MEAN_MOTION":13.10377477,"ECCENTRICITY":0.0002161,"INCLINATION":87.8816,"RA_OF_ASC_NODE":31.8169,"ARG_OF_PERICENTER":80.3994,"MEAN_ANOMALY":279.7378,"EPHEMERIS_TYPE":0,"NORAD_CAT_ID":51647,"ELEMENT_SET_NO":999,"REV_AT_EPOCH":21227,"BSTAR":0.001401,"MEAN_MOTION_DOT":0.00000502,"MEAN_MOTION_DDOT":0},{"OBJECT_NAME":"ONEWEB-0458","OBJECT_ID":"2022-012AC","EPOCH":"2026-07-09T00:39:10.444608","CLASSIFICATION_TYPE":"U","MEAN_MOTION":13.10369181,"ECCENTRICITY":0.00016745,"INCLINATION":87.8809,"RA_OF_ASC_NODE":31.9083,"ARG_OF_PERICENTER":86.64,"MEAN_ANOMALY":273.4919,"EPHEMERIS_TYPE":0,"NORAD_CAT_ID":51648,"ELEMENT_SET_NO":999,"REV_AT_EPOCH":21216,"BSTAR":0.0010563922,"MEAN_MOTION_DOT":0.00000381,"MEAN_MOTION_DDOT":0},{"OBJECT_NAME":"ONEWEB-0461","OBJECT_ID":"2022-012AD","EPOCH":"2026-07-09T13:18:13.572864","CLASSIFICATION_TYPE":"U","MEAN_MOTION":13.17650128,"ECCENTRICITY":0.0001972,"INCLINATION":87.9149,"RA_OF_ASC_NODE":1.4088,"ARG_OF_PERICENTER":89.5785,"MEAN_ANOMALY":270.5573,"EPHEMERIS_TYPE":0,"NORAD_CAT_ID":51649,"ELEMENT_SET_NO":999,"REV_AT_EPOCH":21683,"BSTAR":0.00014037,"MEAN_MOTION_DOT":6.7e-7,"MEAN_MOTION_DDOT":0},{"OBJECT_NAME":"ONEWEB-0463","OBJECT_ID":"2022-012AE","EPOCH":"2026-07-09T18:19:32.492064","CLASSIFICATION_TYPE":"U","MEAN_MOTION":13.17650492,"ECCENTRICITY":0.0002015,"INCLINATION":87.9137,"RA_OF_ASC_NODE":1.3874,"ARG_OF_PERICENTER":90.0443,"MEAN_ANOMALY":270.092,"EPHEMERIS_TYPE":0,"NORAD_CAT_ID":51650,"ELEMENT_SET_NO":999,"REV_AT_EPOCH":21664,"BSTAR":0.00029821,"MEAN_MOTION_DOT":0.00000129,"MEAN_MOTION_DDOT":0},{"OBJECT_NAME":"ONEWEB-0464","OBJECT_ID":"2022-012AF","EPOCH":"2026-07-09T00:35:31.034400","CLASSIFICATION_TYPE":"U","MEAN_MOTION":13.10369537,"ECCENTRICITY":0.00015244,"INCLINATION":87.8806,"RA_OF_ASC_NODE":31.929,"ARG_OF_PERICENTER":86.9293,"MEAN_ANOMALY":273.2009,"EPHEMERIS_TYPE":0,"NORAD_CAT_ID":51651,"ELEMENT_SET_NO":999,"REV_AT_EPOCH":21218,"BSTAR":0.0011556618,"MEAN_MOTION_DOT":0.00000416,"MEAN_MOTION_DDOT":0},{"OBJECT_NAME":"ONEWEB-0468","OBJECT_ID":"2022-012AG","EPOCH":"2026-07-09T00:42:48.693600","CLASSIFICATION_TYPE":"U","MEAN_MOTION":13.10368529,"ECCENTRICITY":0.00016324,"INCLINATION":87.8811,"RA_OF_ASC_NODE":31.9214,"ARG_OF_PERICENTER":91.3483,"MEAN_ANOMALY":268.7832,"EPHEMERIS_TYPE":0,"NORAD_CAT_ID":51652,"ELEMENT_SET_NO":999,"REV_AT_EPOCH":21216,"BSTAR":0.00033222927,"MEAN_MOTION_DOT":0.00000129,"MEAN_MOTION_DDOT":0},{"OBJECT_NAME":"ONEWEB-0473","OBJECT_ID":"2022-012AH","EPOCH":"2026-07-08T22:33:22.076640","CLASSIFICATION_TYPE":"U","MEAN_MOTION":13.10372712,"ECCENTRICITY":0.0001789,"INCLINATION":87.8814,"RA_OF_ASC_NODE":31.9416,"ARG_OF_PERICENTER":88.9903,"MEAN_ANOMALY":271.143,"EPHEMERIS_TYPE":0,"NORAD_CAT_ID":51653,"ELEMENT_SET_NO":999,"REV_AT_EPOCH":21215,"BSTAR":0.0017913375,"MEAN_MOTION_DOT":0.00000638,"MEAN_MOTION_DDOT":0},{"OBJECT_NAME":"ONEWEB-0474","OBJECT_ID":"2022-012AJ","EPOCH":"2026-07-09T13:00:46.556928","CLASSIFICATION_TYPE":"U","MEAN_MOTION":13.1037543,"ECCENTRICITY":0.0001539,"INCLINATION":87.8824,"RA_OF_ASC_NODE":31.8078,"ARG_OF_PERICENTER":90.4305,"MEAN_ANOMALY":269.6999,"EPHEMERIS_TYPE":0,"NORAD_CAT_ID":51654,"ELEMENT_SET_NO":999,"REV_AT_EPOCH":21222,"BSTAR":0.0016484,"MEAN_MOTION_DOT":0.00000588,"MEAN_MOTION_DDOT":0},{"OBJECT_NAME":"ONEWEB-0475","OBJECT_ID":"2022-012AK","EPOCH":"2026-07-09T16:47:11.979744","CLASSIFICATION_TYPE":"U","MEAN_MOTION":13.17648335,"ECCENTRICITY":0.0001283,"INCLINATION":87.9137,"RA_OF_ASC_NODE":1.3937,"ARG_OF_PERICENTER":105.4247,"MEAN_ANOMALY":254.7027,"EPHEMERIS_TYPE":0,"NORAD_CAT_ID":51655,"ELEMENT_SET_NO":999,"REV_AT_EPOCH":21665,"BSTAR":0.00015811,"MEAN_MOTION_DOT":7.4e-7,"MEAN_MOTION_DDOT":0},{"OBJECT_NAME":"ONEWEB-0490","OBJECT_ID":"2022-138A","EPOCH":"2026-07-09T06:33:14.889600","CLASSIFICATION_TYPE":"U","MEAN_MOTION":13.19726523,"ECCENTRICITY":0.00019967,"INCLINATION":87.9194,"RA_OF_ASC_NODE":300.5692,"ARG_OF_PERICENTER":106.3914,"MEAN_ANOMALY":253.7438,"EPHEMERIS_TYPE":0,"NORAD_CAT_ID":54113,"ELEMENT_SET_NO":999,"REV_AT_EPOCH":17974,"BSTAR":-0.000039888616,"MEAN_MOTION_DOT":-3e-8,"MEAN_MOTION_DDOT":0},{"OBJECT_NAME":"ONEWEB-0492","OBJECT_ID":"2022-138B","EPOCH":"2026-07-09T14:26:19.574016","CLASSIFICATION_TYPE":"U","MEAN_MOTION":13.19727199,"ECCENTRICITY":0.0002192,"INCLINATION":87.9188,"RA_OF_ASC_NODE":300.5044,"ARG_OF_PERICENTER":105.7541,"MEAN_ANOMALY":254.3834,"EPHEMERIS_TYPE":0,"NORAD_CAT_ID":54114,"ELEMENT_SET_NO":999,"REV_AT_EPOCH":17979,"BSTAR":-0.00029003,"MEAN_MOTION_DOT":-0.00000103,"MEAN_MOTION_DDOT":0},{"OBJECT_NAME":"ONEWEB-0495","OBJECT_ID":"2022-138C","EPOCH":"2026-07-09T06:37:47.882496","CLASSIFICATION_TYPE":"U","MEAN_MOTION":13.19726208,"ECCENTRICITY":0.00020303,"INCLINATION":87.9182,"RA_OF_ASC_NODE":300.5719,"ARG_OF_PERICENTER":120.9618,"MEAN_ANOMALY":239.1715,"EPHEMERIS_TYPE":0,"NORAD_CAT_ID":54115,"ELEMENT_SET_NO":999,"REV_AT_EPOCH":17973,"BSTAR":0.00012537368,"MEAN_MOTION_DOT":6.3e-7,"MEAN_MOTION_DDOT":0},{"OBJECT_NAME":"ONEWEB-0497","OBJECT_ID":"2022-138D","EPOCH":"2026-07-09T06:55:59.741760","CLASSIFICATION_TYPE":"U","MEAN_MOTION":13.19726104,"ECCENTRICITY":0.00020529,"INCLINATION":87.9203,"RA_OF_ASC_NODE":300.5604,"ARG_OF_PERICENTER":99.9611,"MEAN_ANOMALY":260.1753,"EPHEMERIS_TYPE":0,"NORAD_CAT_ID":54116,"ELEMENT_SET_NO":999,"REV_AT_EPOCH":17972,"BSTAR":0.000066499172,"MEAN_MOTION_DOT":4e-7,"MEAN_MOTION_DDOT":0},{"OBJECT_NAME":"ONEWEB-0499","OBJECT_ID":"2022-138E","EPOCH":"2026-07-09T06:32:05.589888","CLASSIFICATION_TYPE":"U","MEAN_MOTION":13.19723854,"ECCENTRICITY":0.00018516,"INCLINATION":87.9187,"RA_OF_ASC_NODE":300.5729,"ARG_OF_PERICENTER":107.7676,"MEAN_ANOMALY":252.3659,"EPHEMERIS_TYPE":0,"NORAD_CAT_ID":54117,"ELEMENT_SET_NO":999,"REV_AT_EPOCH":17973,"BSTAR":0.00014604414,"MEAN_MOTION_DOT":7.1e-7,"MEAN_MOTION_DDOT":0},{"OBJECT_NAME":"ONEWEB-0500","OBJECT_ID":"2022-138F","EPOCH":"2026-07-09T06:35:31.782624","CLASSIFICATION_TYPE":"U","MEAN_MOTION":13.19726057,"ECCENTRICITY":0.00020709,"INCLINATION":87.9186,"RA_OF_ASC_NODE":300.5696,"ARG_OF_PERICENTER":101.4624,"MEAN_ANOMALY":258.6742,"EPHEMERIS_TYPE":0,"NORAD_CAT_ID":54118,"ELEMENT_SET_NO":999,"REV_AT_EPOCH":17974,"BSTAR":0.00010247016,"MEAN_MOTION_DOT":5.4e-7,"MEAN_MOTION_DDOT":0},{"OBJECT_NAME":"ONEWEB-0501","OBJECT_ID":"2022-138G","EPOCH":"2026-07-09T07:18:45.061344","CLASSIFICATION_TYPE":"U","MEAN_MOTION":13.19725024,"ECCENTRICITY":0.00019849,"INCLINATION":87.9198,"RA_OF_ASC_NODE":300.561,"ARG_OF_PERICENTER":111.0393,"MEAN_ANOMALY":249.0952,"EPHEMERIS_TYPE":0,"NORAD_CAT_ID":54119,"ELEMENT_SET_NO":999,"REV_AT_EPOCH":17972,"BSTAR":0.0011274342,"MEAN_MOTION_DOT":0.00000464,"MEAN_MOTION_DDOT":0},{"OBJECT_NAME":"ONEWEB-0502","OBJECT_ID":"2022-138H","EPOCH":"2026-07-09T06:58:16.221792","CLASSIFICATION_TYPE":"U","MEAN_MOTION":13.19725881,"ECCENTRICITY":0.00018121,"INCLINATION":87.9191,"RA_OF_ASC_NODE":300.5545,"ARG_OF_PERICENTER":108.9615,"MEAN_ANOMALY":251.1715,"EPHEMERIS_TYPE":0,"NORAD_CAT_ID":54120,"ELEMENT_SET_NO":999,"REV_AT_EPOCH":17974,"BSTAR":0.000049928308,"MEAN_MOTION_DOT":3.3e-7,"MEAN_MOTION_DDOT":0},{"OBJECT_NAME":"ONEWEB-0503","OBJECT_ID":"2022-138J","EPOCH":"2026-07-09T06:42:20.756160","CLASSIFICATION_TYPE":"U","MEAN_MOTION":13.19726638,"ECCENTRICITY":0.00017971,"INCLINATION":87.9199,"RA_OF_ASC_NODE":300.5623,"ARG_OF_PERICENTER":97.2011,"MEAN_ANOMALY":262.9326,"EPHEMERIS_TYPE":0,"NORAD_CAT_ID":54121,"ELEMENT_SET_NO":999,"REV_AT_EPOCH":17973,"BSTAR":0.00019200578,"MEAN_MOTION_DOT":9e-7,"MEAN_MOTION_DDOT":0},{"OBJECT_NAME":"ONEWEB-0504","OBJECT_ID":"2022-138K","EPOCH":"2026-07-09T06:24:09.124992","CLASSIFICATION_TYPE":"U","MEAN_MOTION":13.19726314,"ECCENTRICITY":0.00018131,"INCLINATION":87.9191,"RA_OF_ASC_NODE":300.57,"ARG_OF_PERICENTER":106.9191,"MEAN_ANOMALY":253.214,"EPHEMERIS_TYPE":0,"NORAD_CAT_ID":54122,"ELEMENT_SET_NO":999,"REV_AT_EPOCH":17974,"BSTAR":0.00021709507,"MEAN_MOTION_DOT":0.000001,"MEAN_MOTION_DDOT":0},{"OBJECT_NAME":"ONEWEB-0505","OBJECT_ID":"2022-138L","EPOCH":"2026-07-09T06:19:34.704768","CLASSIFICATION_TYPE":"U","MEAN_MOTION":13.19727627,"ECCENTRICITY":0.00018148,"INCLINATION":87.919,"RA_OF_ASC_NODE":300.5713,"ARG_OF_PERICENTER":114.6836,"MEAN_ANOMALY":245.4486,"EPHEMERIS_TYPE":0,"NORAD_CAT_ID":54123,"ELEMENT_SET_NO":999,"REV_AT_EPOCH":17972,"BSTAR":0.0001461041,"MEAN_MOTION_DOT":7.1e-7,"MEAN_MOTION_DDOT":0},{"OBJECT_NAME":"ONEWEB-0506","OBJECT_ID":"2022-138M","EPOCH":"2026-07-09T05:43:13.258560","CLASSIFICATION_TYPE":"U","MEAN_MOTION":13.19725464,"ECCENTRICITY":0.00019489,"INCLINATION":87.9195,"RA_OF_ASC_NODE":300.5732,"ARG_OF_PERICENTER":112.6394,"MEAN_ANOMALY":247.4945,"EPHEMERIS_TYPE":0,"NORAD_CAT_ID":54124,"ELEMENT_SET_NO":999,"REV_AT_EPOCH":17971,"BSTAR":0.00006794078,"MEAN_MOTION_DOT":4e-7,"MEAN_MOTION_DDOT":0},{"OBJECT_NAME":"ONEWEB-0507","OBJECT_ID":"2022-138N","EPOCH":"2026-07-09T06:12:46.526112","CLASSIFICATION_TYPE":"U","MEAN_MOTION":13.19726956,"ECCENTRICITY":0.00019572,"INCLINATION":87.918,"RA_OF_ASC_NODE":300.5804,"ARG_OF_PERICENTER":107.0731,"MEAN_ANOMALY":253.0617,"EPHEMERIS_TYPE":0,"NORAD_CAT_ID":54125,"ELEMENT_SET_NO":999,"REV_AT_EPOCH":17976,"BSTAR":0.00013545277,"MEAN_MOTION_DOT":6.7e-7,"MEAN_MOTION_DDOT":0},{"OBJECT_NAME":"ONEWEB-0508","OBJECT_ID":"2022-138P","EPOCH":"2026-07-09T06:08:13.926336","CLASSIFICATION_TYPE":"U","MEAN_MOTION":13.19725796,"ECCENTRICITY":0.00021103,"INCLINATION":87.9185,"RA_OF_ASC_NODE":300.5797,"ARG_OF_PERICENTER":113.3185,"MEAN_ANOMALY":246.817,"EPHEMERIS_TYPE":0,"NORAD_CAT_ID":54126,"ELEMENT_SET_NO":999,"REV_AT_EPOCH":17974,"BSTAR":0.00011334976,"MEAN_MOTION_DOT":5.8e-7,"MEAN_MOTION_DDOT":0}]}
